{
  "type": "FeatureCollection",
  "features": [
    {
      "type": "Feature",
      "properties": {
        "norad_id": 34141,
        "name": "COSMOS 2251 DEB",
        "group": "cosmos-2251-debris",
        "lat": 14.32881222273862,
        "lon": -148.2790418301597,
        "alt_km": 703.4549944327973,
        "timestamp": "2025-12-08T23:34:04.365528+00:00",
        "meta_object_name": "COSMOS 2251 DEB",
        "meta_object_id": "1993-036LN",
        "meta_epoch": "2025-12-08T13:27:44.555904",
        "meta_mean_motion": 14.49169301,
        "meta_eccentricity": 0.00477067,
        "meta_inclination": 74.0111,
        "meta_ra_of_asc_node": 36.7115,
        "meta_arg_of_pericenter": 124.3798,
        "meta_mean_anomaly": 4.4304,
        "meta_ephemeris_type": 0,
        "meta_classification_type": "U",
        "meta_norad_cat_id": 34141,
        "meta_element_set_no": 999,
        "meta_rev_at_epoch": 87633,
        "meta_bstar": 0.002040182,
        "meta_mean_motion_dot": 7.859e-05,
        "meta_mean_motion_ddot": 0,
        "tle_line1": "1 34141U 93036LN  25342.56093236  .00007859  00000+0  20402-2 0  9992",
        "tle_line2": "2 34141  74.0111  36.7115 0047706 124.3798   4.4304 14.49169301876330"
      },
      "geometry": {
        "type": "Point",
        "coordinates": [
          -148.2790418301597,
          14.32881222273862
        ]
      }
    },
    {
      "type": "Feature",
      "properties": {
        "norad_id": 34270,
        "name": "COSMOS 2251 DEB",
        "group": "cosmos-2251-debris",
        "lat": -73.50175113074903,
        "lon": -150.655882375062,
        "alt_km": 714.8882008836636,
        "timestamp": "2025-12-08T23:34:04.365538+00:00",
        "meta_object_name": "COSMOS 2251 DEB",
        "meta_object_id": "1993-036LQ",
        "meta_epoch": "2025-12-08T09:15:03.915072",
        "meta_mean_motion": 14.65113623,
        "meta_eccentricity": 0.00477654,
        "meta_inclination": 74.0117,
        "meta_ra_of_asc_node": 315.0173,
        "meta_arg_of_pericenter": 109.1495,
        "meta_mean_anomaly": 251.4853,
        "meta_ephemeris_type": 0,
        "meta_classification_type": "U",
        "meta_norad_cat_id": 34270,
        "meta_element_set_no": 999,
        "meta_rev_at_epoch": 89032,
        "meta_bstar": 0.00072908313,
        "meta_mean_motion_dot": 3.954e-05,
        "meta_mean_motion_ddot": 0,
        "tle_line1": "1 34270U 93036LQ  25342.38546198  .00003954  00000+0  72908-3 0  9996",
        "tle_line2": "2 34270  74.0117 315.0173 0047765 109.1495 251.4853 14.65113623890328"
      },
      "geometry": {
        "type": "Point",
        "coordinates": [
          -150.655882375062,
          -73.50175113074903
        ]
      }
    },
    {
      "type": "Feature",
      "properties": {
        "norad_id": 34271,
        "name": "COSMOS 2251 DEB",
        "group": "cosmos-2251-debris",
        "lat": 41.375100190486776,
        "lon": 12.00779137863867,
        "alt_km": 663.117423787302,
        "timestamp": "2025-12-08T23:34:04.365549+00:00",
        "meta_object_name": "COSMOS 2251 DEB",
        "meta_object_id": "1993-036LR",
        "meta_epoch": "2025-12-08T09:03:23.537664",
        "meta_mean_motion": 14.706107,
        "meta_eccentricity": 0.00192802,
        "meta_inclination": 74.0196,
        "meta_ra_of_asc_node": 207.8027,
        "meta_arg_of_pericenter": 262.5053,
        "meta_mean_anomaly": 274.3879,
        "meta_ephemeris_type": 0,
        "meta_classification_type": "U",
        "meta_norad_cat_id": 34271,
        "meta_element_set_no": 999,
        "meta_rev_at_epoch": 88170,
        "meta_bstar": 0.0021295653,
        "meta_mean_motion_dot": 0.00012981,
        "meta_mean_motion_ddot": 0,
        "tle_line1": "1 34271U 93036LR  25342.37735576  .00012981  00000+0  21296-2 0  9999",
        "tle_line2": "2 34271  74.0196 207.8027 0019280 262.5053 274.3879 14.70610700881705"
      },
      "geometry": {
        "type": "Point",
        "coordinates": [
          12.00779137863867,
          41.375100190486776
        ]
      }
    },
    {
      "type": "Feature",
      "properties": {
        "norad_id": 34273,
        "name": "COSMOS 2251 DEB",
        "group": "cosmos-2251-debris",
        "lat": -68.44604845673601,
        "lon": 48.16960599139717,
        "alt_km": 691.9851324194196,
        "timestamp": "2025-12-08T23:34:04.365559+00:00",
        "meta_object_name": "COSMOS 2251 DEB",
        "meta_object_id": "1993-036LT",
        "meta_epoch": "2025-12-08T07:37:17.945184",
        "meta_mean_motion": 14.61157156,
        "meta_eccentricity": 0.00142963,
        "meta_inclination": 74.0362,
        "meta_ra_of_asc_node": 95.8822,
        "meta_arg_of_pericenter": 221.4582,
        "meta_mean_anomaly": 169.5254,
        "meta_ephemeris_type": 0,
        "meta_classification_type": "U",
        "meta_norad_cat_id": 34273,
        "meta_element_set_no": 999,
        "meta_rev_at_epoch": 88557,
        "meta_bstar": 0.0014863226,
        "meta_mean_motion_dot": 7.304e-05,
        "meta_mean_motion_ddot": 0,
        "tle_line1": "1 34273U 93036LT  25342.31756881  .00007304  00000+0  14863-2 0  9992",
        "tle_line2": "2 34273  74.0362  95.8822 0014296 221.4582 169.5254 14.61157156885575"
      },
      "geometry": {
        "type": "Point",
        "coordinates": [
          48.16960599139717,
          -68.44604845673601
        ]
      }
    },
    {
      "type": "Feature",
      "properties": {
        "norad_id": 34274,
        "name": "COSMOS 2251 DEB",
        "group": "cosmos-2251-debris",
        "lat": -39.189570403721596,
        "lon": 62.28377757094125,
        "alt_km": 684.9745250291116,
        "timestamp": "2025-12-08T23:34:04.365569+00:00",
        "meta_object_name": "COSMOS 2251 DEB",
        "meta_object_id": "1993-036LU",
        "meta_epoch": "2025-12-08T12:21:20.404800",
        "meta_mean_motion": 14.64699049,
        "meta_eccentricity": 0.00222568,
        "meta_inclination": 74.005,
        "meta_ra_of_asc_node": 76.7074,
        "meta_arg_of_pericenter": 226.8439,
        "meta_mean_anomaly": 149.5262,
        "meta_ephemeris_type": 0,
        "meta_classification_type": "U",
        "meta_norad_cat_id": 34274,
        "meta_element_set_no": 999,
        "meta_rev_at_epoch": 88614,
        "meta_bstar": 0.0016919543,
        "meta_mean_motion_dot": 9.02e-05,
        "meta_mean_motion_ddot": 0,
        "tle_line1": "1 34274U 93036LU  25342.51481950  .00009020  00000+0  16920-2 0  9990",
        "tle_line2": "2 34274  74.0050  76.7074 0022256 226.8439 149.5262 14.64699049886148"
      },
      "geometry": {
        "type": "Point",
        "coordinates": [
          62.28377757094125,
          -39.189570403721596
        ]
      }
    },
    {
      "type": "Feature",
      "properties": {
        "norad_id": 34276,
        "name": "COSMOS 2251 DEB",
        "group": "cosmos-2251-debris",
        "lat": -1.5684002094686047,
        "lon": 92.01594320566645,
        "alt_km": 712.9170747690459,
        "timestamp": "2025-12-08T23:34:04.365579+00:00",
        "meta_object_name": "COSMOS 2251 DEB",
        "meta_object_id": "1993-036LW",
        "meta_epoch": "2025-12-08T13:45:23.227200",
        "meta_mean_motion": 14.57181412,
        "meta_eccentricity": 0.00226663,
        "meta_inclination": 74.0239,
        "meta_ra_of_asc_node": 93.2422,
        "meta_arg_of_pericenter": 240.1519,
        "meta_mean_anomaly": 134.4269,
        "meta_ephemeris_type": 0,
        "meta_classification_type": "U",
        "meta_norad_cat_id": 34276,
        "meta_element_set_no": 999,
        "meta_rev_at_epoch": 88532,
        "meta_bstar": 0.0013560882,
        "meta_mean_motion_dot": 6.118e-05,
        "meta_mean_motion_ddot": 0,
        "tle_line1": "1 34276U 93036LW  25342.57318550  .00006118  00000+0  13561-2 0  9996",
        "tle_line2": "2 34276  74.0239  93.2422 0022666 240.1519 134.4269 14.57181412885324"
      },
      "geometry": {
        "type": "Point",
        "coordinates": [
          92.01594320566645,
          -1.5684002094686047
        ]
      }
    },
    {
      "type": "Feature",
      "properties": {
        "norad_id": 34297,
        "name": "COSMOS 2251 DEB",
        "group": "cosmos-2251-debris",
        "lat": -65.83551134984691,
        "lon": -108.47075990308703,
        "alt_km": 772.7845766230912,
        "timestamp": "2025-12-08T23:34:04.365589+00:00",
        "meta_object_name": "COSMOS 2251 DEB",
        "meta_object_id": "1993-036MT",
        "meta_epoch": "2025-12-08T14:41:40.996320",
        "meta_mean_motion": 14.36623905,
        "meta_eccentricity": 0.00171098,
        "meta_inclination": 74.0484,
        "meta_ra_of_asc_node": 291.8114,
        "meta_arg_of_pericenter": 1.342,
        "meta_mean_anomaly": 175.9303,
        "meta_ephemeris_type": 0,
        "meta_classification_type": "U",
        "meta_norad_cat_id": 34297,
        "meta_element_set_no": 999,
        "meta_rev_at_epoch": 88005,
        "meta_bstar": 0.00029827075,
        "meta_mean_motion_dot": 8.53e-06,
        "meta_mean_motion_ddot": 0,
        "tle_line1": "1 34297U 93036MT  25342.61228005  .00000853  00000+0  29827-3 0  9992",
        "tle_line2": "2 34297  74.0484 291.8114 0017109   1.3420 175.9303 14.36623905880056"
      },
      "geometry": {
        "type": "Point",
        "coordinates": [
          -108.47075990308703,
          -65.83551134984691
        ]
      }
    }
  ]
}